start=new Date('2022-12-11T00:00:00.000Z').valueOf();
sats=[{"MEAN_MOTION":"15.06413027","RA_OF_ASC_NODE":"52.5274","REF_FRAME":"TEME","TIME_SYSTEM":"UTC","LAUNCH_DATE":"2021-05-15","SEMIMAJOR_AXIS":"6925.309","GP_ID":"219932741","CLASSIFICATION_TYPE":"U","BSTAR":"-0.00011316000000","INCLINATION":"53.0591","DECAY_DATE":null,"ARG_OF_PERICENTER":"73.1128","TLE_LINE1":"1 48563U 21041L   22344.41328722 -.00001967  00000-0 -11316-3 0  9998","PERIOD":"95.591","ECCENTRICITY":"0.00014900","FILE":"3688140","MEAN_MOTION_DOT":"-0.00001967","NORAD_CAT_ID":"48563","MEAN_ELEMENT_THEORY":"SGP4","MEAN_ANOMALY":"287.0024","PERIAPSIS":"546.142","REV_AT_EPOCH":"8655","ELEMENT_SET_NO":"999","MEAN_MOTION_DDOT":"0.0000000000000","APOAPSIS":"548.206","COUNTRY_CODE":"US","EPOCH":"2022-12-10T09:55:08.015808","OBJECT_ID":"2021-041L","SITE":"AFETR","OBJECT_NAME":"STARLINK-2188","TLE_LINE2":"2 48563  53.0591  52.5274 0001490  73.1128 287.0024 15.06413027 86558","CENTER_NAME":"EARTH","EPHEMERIS_TYPE":"0","OBJECT_TYPE":"PAYLOAD","RCS_SIZE":"LARGE"},{"EPHEMERIS_TYPE":"0","CENTER_NAME":"EARTH","RCS_SIZE":"LARGE","OBJECT_TYPE":"PAYLOAD","EPOCH":"2022-12-10T16:06:41.641920","COUNTRY_CODE":"US","APOAPSIS":"548.642","MEAN_MOTION_DDOT":"0.0000000000000","ELEMENT_SET_NO":"999","TLE_LINE2":"2 48564  53.0553  51.3819 0001979  52.8849 307.2321 15.06381064 86599","SITE":"AFETR","OBJECT_NAME":"STARLINK-2190","OBJECT_ID":"2021-041M","ECCENTRICITY":"0.00019790","PERIOD":"95.593","TLE_LINE1":"1 48564U 21041M   22344.67131530  .00001223  00000-0  10105-3 0  9994","ARG_OF_PERICENTER":"52.8849","REV_AT_EPOCH":"8659","PERIAPSIS":"545.901","MEAN_ANOMALY":"307.2321","MEAN_ELEMENT_THEORY":"SGP4","NORAD_CAT_ID":"48564","FILE":"3688965","MEAN_MOTION_DOT":"0.00001223","SEMIMAJOR_AXIS":"6925.407","LAUNCH_DATE":"2021-05-15","TIME_SYSTEM":"UTC","REF_FRAME":"TEME","RA_OF_ASC_NODE":"51.3819","MEAN_MOTION":"15.06381064","DECAY_DATE":null,"INCLINATION":"53.0553","BSTAR":"0.00010105000000","CLASSIFICATION_TYPE":"U","GP_ID":"219976576"},{"INCLINATION":"53.0573","DECAY_DATE":null,"GP_ID":"219976827","CLASSIFICATION_TYPE":"U","BSTAR":"-0.00013539000000","RA_OF_ASC_NODE":"51.3873","MEAN_MOTION":"15.06401200","REF_FRAME":"TEME","LAUNCH_DATE":"2021-05-15","SEMIMAJOR_AXIS":"6925.345","TIME_SYSTEM":"UTC","NORAD_CAT_ID":"48565","FILE":"3688965","MEAN_MOTION_DOT":"-0.00002298","MEAN_ELEMENT_THEORY":"SGP4","REV_AT_EPOCH":"8659","PERIAPSIS":"546.202","MEAN_ANOMALY":"287.3960","TLE_LINE1":"1 48565U 21041N   22344.66668470 -.00002298  00000-0 -13539-3 0  9991","PERIOD":"95.592","ARG_OF_PERICENTER":"72.7188","ECCENTRICITY":"0.00014550","OBJECT_ID":"2021-041N","OBJECT_NAME":"STARLINK-2191","SITE":"AFETR","TLE_LINE2":"2 48565  53.0573  51.3873 0001455  72.7188 287.3960 15.06401200 86590","MEAN_MOTION_DDOT":"0.0000000000000","APOAPSIS":"548.218","ELEMENT_SET_NO":"999","EPOCH":"2022-12-10T16:00:01.558080","COUNTRY_CODE":"US","OBJECT_TYPE":"PAYLOAD","RCS_SIZE":"LARGE","CENTER_NAME":"EARTH","EPHEMERIS_TYPE":"0"},{"SEMIMAJOR_AXIS":"6925.344","LAUNCH_DATE":"2021-05-15","TIME_SYSTEM":"UTC","REF_FRAME":"TEME","RA_OF_ASC_NODE":"61.2680","MEAN_MOTION":"15.06401549","DECAY_DATE":null,"INCLINATION":"53.0563","BSTAR":"-0.00001453200000","CLASSIFICATION_TYPE":"U","GP_ID":"219975575","ECCENTRICITY":"0.00017330","PERIOD":"95.592","TLE_LINE1":"1 48566U 21041P   22344.68882093 -.00000498  00000-0 -14532-4 0  9998","ARG_OF_PERICENTER":"58.3029","REV_AT_EPOCH":"8645","MEAN_ANOMALY":"301.8128","PERIAPSIS":"546.009","MEAN_ELEMENT_THEORY":"SGP4","NORAD_CAT_ID":"48566","FILE":"3688965","MEAN_MOTION_DOT":"-0.00000498","EPOCH":"2022-12-10T16:31:54.128352","COUNTRY_CODE":"US","APOAPSIS":"548.409","MEAN_MOTION_DDOT":"0.0000000000000","ELEMENT_SET_NO":"999","TLE_LINE2":"2 48566  53.0563  61.2680 0001733  58.3029 301.8128 15.06401549 86458","OBJECT_NAME":"STARLINK-2214","SITE":"AFETR","OBJECT_ID":"2021-041P","EPHEMERIS_TYPE":"0","CENTER_NAME":"EARTH","RCS_SIZE":"LARGE","OBJECT_TYPE":"PAYLOAD"},{"MEAN_MOTION":"15.06394651","RA_OF_ASC_NODE":"61.5380","REF_FRAME":"TEME","LAUNCH_DATE":"2021-05-15","SEMIMAJOR_AXIS":"6925.365","TIME_SYSTEM":"UTC","INCLINATION":"53.0565","DECAY_DATE":null,"GP_ID":"219975825","CLASSIFICATION_TYPE":"U","BSTAR":"0.00002585600000","PERIOD":"95.592","TLE_LINE1":"1 48567U 21041Q   22344.63721508  .00000104  00000-0  25856-4 0  9990","ARG_OF_PERICENTER":"63.1392","ECCENTRICITY":"0.00014440","MEAN_MOTION_DOT":"0.00000104","FILE":"3688965","NORAD_CAT_ID":"48567","MEAN_ELEMENT_THEORY":"SGP4","REV_AT_EPOCH":"8644","MEAN_ANOMALY":"296.9745","PERIAPSIS":"546.230","MEAN_MOTION_DDOT":"0.0000000000000","APOAPSIS":"548.230","ELEMENT_SET_NO":"999","EPOCH":"2022-12-10T15:17:35.382912","COUNTRY_CODE":"US","OBJECT_ID":"2021-041Q","SITE":"AFETR","OBJECT_NAME":"STARLINK-2215","TLE_LINE2":"2 48567  53.0565  61.5380 0001444  63.1392 296.9745 15.06394651 86440","CENTER_NAME":"EARTH","EPHEMERIS_TYPE":"0","OBJECT_TYPE":"PAYLOAD","RCS_SIZE":"LARGE"},{"ARG_OF_PERICENTER":"44.4712","PERIOD":"95.592","TLE_LINE1":"1 48568U 21041R   22344.71554813 -.00000426  00000-0 -97100-5 0  9994","ECCENTRICITY":"0.00018300","MEAN_ELEMENT_THEORY":"SGP4","FILE":"3688965","MEAN_MOTION_DOT":"-0.00000426","NORAD_CAT_ID":"48568","MEAN_ANOMALY":"315.6424","PERIAPSIS":"545.954","REV_AT_EPOCH":"8659","REF_FRAME":"TEME","RA_OF_ASC_NODE":"51.1804","MEAN_MOTION":"15.06397424","TIME_SYSTEM":"UTC","SEMIMAJOR_AXIS":"6925.356","LAUNCH_DATE":"2021-05-15","CLASSIFICATION_TYPE":"U","BSTAR":"-0.00000971000000","GP_ID":"219976076","DECAY_DATE":null,"INCLINATION":"53.0572","CENTER_NAME":"EARTH","EPHEMERIS_TYPE":"0","OBJECT_TYPE":"PAYLOAD","RCS_SIZE":"LARGE","ELEMENT_SET_NO":"999","APOAPSIS":"548.489","MEAN_MOTION_DDOT":"0.0000000000000","COUNTRY_CODE":"US","EPOCH":"2022-12-10T17:10:23.358432","SITE":"AFETR","OBJECT_NAME":"STARLINK-2217","OBJECT_ID":"2021-041R","TLE_LINE2":"2 48568  53.0572  51.1804 0001830  44.4712 315.6424 15.06397424 86592"},{"CENTER_NAME":"EARTH","EPHEMERIS_TYPE":"0","OBJECT_TYPE":"PAYLOAD","RCS_SIZE":"LARGE","APOAPSIS":"547.658","MEAN_MOTION_DDOT":"0.0000000000000","ELEMENT_SET_NO":"999","EPOCH":"2022-12-10T11:25:22.446336","COUNTRY_CODE":"US","SITE":"AFETR","OBJECT_NAME":"STARLINK-2219","OBJECT_ID":"2021-041S","TLE_LINE2":"2 48569  53.0555  52.2465 0000615  41.8306 318.2730 15.06394067 86565","TLE_LINE1":"1 48569U 21041S   22344.47595424  .00011952  00000-0  82003-3 0  9999","PERIOD":"95.593","ARG_OF_PERICENTER":"41.8306","ECCENTRICITY":"0.00006150","MEAN_ELEMENT_THEORY":"SGP4","FILE":"3688140","MEAN_MOTION_DOT":"0.00011952","NORAD_CAT_ID":"48569","REV_AT_EPOCH":"8656","MEAN_ANOMALY":"318.2730","PERIAPSIS":"546.806","REF_FRAME":"TEME","RA_OF_ASC_NODE":"52.2465","MEAN_MOTION":"15.06394067","SEMIMAJOR_AXIS":"6925.367","LAUNCH_DATE":"2021-05-15","TIME_SYSTEM":"UTC","DECAY_DATE":null,"INCLINATION":"53.0555","CLASSIFICATION_TYPE":"U","BSTAR":"0.00082003000000","GP_ID":"219931740"},{"OBJECT_TYPE":"PAYLOAD","RCS_SIZE":"LARGE","CENTER_NAME":"EARTH","EPHEMERIS_TYPE":"0","OBJECT_ID":"2021-041T","SITE":"AFETR","OBJECT_NAME":"STARLINK-2220","TLE_LINE2":"2 48570  53.0555  62.0188 0002169  52.9868 307.1319 15.06374602 86428","MEAN_MOTION_DDOT":"0.0000000000000","APOAPSIS":"548.794","ELEMENT_SET_NO":"999","EPOCH":"2022-12-10T12:43:41.257632","COUNTRY_CODE":"US","FILE":"3688140","MEAN_MOTION_DOT":"0.00009116","NORAD_CAT_ID":"48570","MEAN_ELEMENT_THEORY":"SGP4","REV_AT_EPOCH":"8642","MEAN_ANOMALY":"307.1319","PERIAPSIS":"545.789","PERIOD":"95.594","TLE_LINE1":"1 48570U 21041T   22344.53033863  .00009116  00000-0  63050-3 0  9992","ARG_OF_PERICENTER":"52.9868","ECCENTRICITY":"0.00021690","INCLINATION":"53.0555","DECAY_DATE":null,"GP_ID":"219931491","CLASSIFICATION_TYPE":"U","BSTAR":"0.00063050000000","MEAN_MOTION":"15.06374602","RA_OF_ASC_NODE":"62.0188","REF_FRAME":"TEME","LAUNCH_DATE":"2021-05-15","SEMIMAJOR_AXIS":"6925.426","TIME_SYSTEM":"UTC"},{"ELEMENT_SET_NO":"999","MEAN_MOTION_DDOT":"0.0000000000000","APOAPSIS":"548.532","COUNTRY_CODE":"US","EPOCH":"2022-12-10T17:40:55.042752","OBJECT_ID":"2021-041U","SITE":"AFETR","OBJECT_NAME":"STARLINK-2221","TLE_LINE2":"2 48571  53.0536  61.0861 0001878  59.6214 300.4960 15.06394301 86460","CENTER_NAME":"EARTH","EPHEMERIS_TYPE":"0","OBJECT_TYPE":"PAYLOAD","RCS_SIZE":"LARGE","RA_OF_ASC_NODE":"61.0861","MEAN_MOTION":"15.06394301","REF_FRAME":"TEME","TIME_SYSTEM":"UTC","LAUNCH_DATE":"2021-05-15","SEMIMAJOR_AXIS":"6925.366","GP_ID":"219975325","CLASSIFICATION_TYPE":"U","BSTAR":"0.00112750000000","INCLINATION":"53.0536","DECAY_DATE":null,"ARG_OF_PERICENTER":"59.6214","TLE_LINE1":"1 48571U 21041U   22344.73674818  .00016550  00000-0  11275-2 0  9997","PERIOD":"95.593","ECCENTRICITY":"0.00018780","FILE":"3688965","MEAN_MOTION_DOT":"0.00016550","NORAD_CAT_ID":"48571","MEAN_ELEMENT_THEORY":"SGP4","MEAN_ANOMALY":"300.4960","PERIAPSIS":"545.930","REV_AT_EPOCH":"8646"},{"REF_FRAME":"TEME","RA_OF_ASC_NODE":"61.0970","MEAN_MOTION":"15.06380863","SEMIMAJOR_AXIS":"6925.407","LAUNCH_DATE":"2021-05-15","TIME_SYSTEM":"UTC","DECAY_DATE":null,"INCLINATION":"53.0551","BSTAR":"-0.00007232700000","CLASSIFICATION_TYPE":"U","GP_ID":"219976577","TLE_LINE1":"1 48572U 21041V   22344.73306525 -.00001358  00000-0 -72327-4 0  9994","PERIOD":"95.593","ARG_OF_PERICENTER":"60.2405","ECCENTRICITY":"0.00014970","MEAN_ELEMENT_THEORY":"SGP4","MEAN_MOTION_DOT":"-0.00001358","FILE":"3688965","NORAD_CAT_ID":"48572","REV_AT_EPOCH":"8646","PERIAPSIS":"546.235","MEAN_ANOMALY":"299.8733","APOAPSIS":"548.309","MEAN_MOTION_DDOT":"0.0000000000000","ELEMENT_SET_NO":"999","EPOCH":"2022-12-10T17:35:36.837600","COUNTRY_CODE":"US","OBJECT_NAME":"STARLINK-2222","SITE":"AFETR","OBJECT_ID":"2021-041V","TLE_LINE2":"2 48572  53.0551  61.0970 0001497  60.2405 299.8733 15.06380863 86463","CENTER_NAME":"EARTH","EPHEMERIS_TYPE":"0","OBJECT_TYPE":"PAYLOAD","RCS_SIZE":"LARGE"}];
